IDEFIX & ARIANE 42P R/B 
1 27422U 02021B   25358.81982889  .00000298  00000+0  12975-3 0  9993
2 27422  98.5802 293.3547 0012766  51.0338 309.1981 14.30958608233313
AQUA                    
1 27424U 02022A   25358.80455341  .00000926  00000+0  19561-3 0  9999
2 27424  98.4055 319.8810 0001809 102.1365 317.5475 14.61757572257795
CZ-4B R/B               
1 27432U 02024C   25358.68043682  .00000048  00000+0  47812-4 0  9993
2 27432  98.8982  47.4097 0049353 235.3393 236.8096 14.14530364218632
MIDORI II (ADEOS-II)    
1 27597U 02056A   25358.89688339  .00000292  00000+0  13276-3 0  9994
2 27597  98.7655 311.9180 0000807 146.7674 213.3559 14.29213531199610
H-2A R/B                
1 27601U 02056E   25358.89386912  .00000412  00000+0  15895-3 0  9995
2 27601  98.3084 317.1677 0070912  25.3796  34.7982 14.33686472203397
CZ-4B R/B               
1 28059U 03049C   25358.56209000  .00000404  00000+0  10419-3 0  9990
2 28059  98.6797 345.5730 0049372 100.7042 259.9719 14.54920179175678
CZ-2C R/B               
1 28222U 04012C   25358.70140275  .00041982  00000+0  59077-3 0  9996
2 28222  97.7395  52.3167 0016607 223.5847 136.4096 15.56391230192582
SL-16 R/B               
1 28353U 04021B   25358.78424522  .00000132  00000+0  93308-4 0  9997
2 28353  71.0004  29.6893 0004634 179.7709 180.3416 14.14579573112248
CZ-4B R/B               
1 28415U 04035C   25358.68077080  .00008329  00000+0  30724-3 0  9991
2 28415  97.3590  28.8656 0031715 233.0203 126.8132 15.27559522168450
CZ-2C R/B               
1 28480U 04046B   25358.52864048  .00000274  00000+0  11696-3 0  9994
2 28480  98.1998 273.1743 0139928  17.6349 342.9621 14.26947431 97786
ARIANE 5 R/B            
1 28499U 04049H   25358.91570045  .00001313  00000+0  15176-3 0  9993
2 28499  98.2528 159.6341 0083491 232.9523 126.4034 14.85042471134697
CZ-2D R/B               
1 28738U 05024B   25358.76699908  .00033256  00000+0  51686-3 0  9993
2 28738  97.3629   6.5343 0003579 316.9601  43.1372 15.53872978128126
